*******************************************************************************
 Revised: September 28, 2017           Jupiter                              599
 
 PHYSICAL DATA (updated 2018-Aug-15):
  Mass x10^24 (kg)      = 1898.13+-.19    Density (g/cm^3)       =   1.326
  Equat. radius (1 bar) = 71492+-4 km     Polar radius (km)      =  66854+-10
  Vol. Mean Radius (km) = 69911+-6        Flattening             =   0.06487
  Geometric Albedo      = 0.52            Rocky core mass (Mc/M) =  0.0261
  Sid. rot. period (III)= 9h 55m 29.71 s  Sid. rot. rate (rad/s) =  0.00017585 
  Mean solar day, hrs   = ~9.9259         
  GM (km^3/s^2)         = 126686534.911   GM 1-sigma (km^3/s^2)  =  +-1.5
  Equ. grav, ge (m/s^2) = 24.79           Pol. grav, gp (m/s^2)  =  28.34
  Vis. magnitude V(1,0) = -9.40
  Vis. mag. (opposition)= -2.70           Obliquity to orbit     =  3.13 deg
  Sidereal orbit period = 11.861982204 y  Sidereal orbit period  = 4332.589 d
  Mean daily motion     = 0.0831294 deg/d Mean orbit speed, km/s = 13.0697
  Atmos. temp. (1 bar)  = 165+-5 K        Escape speed, km/s    =  59.5           
  A_roche(ice)/Rp       =  2.76           Hill's sphere rad. Rp  = 740
                                 Perihelion   Aphelion     Mean
  Solar Constant (W/m^2)         56           46           51
  Maximum Planetary IR (W/m^2)   13.7         13.4         13.6
  Minimum Planetary IR (W/m^2)   13.7         13.4         13.6
*******************************************************************************
 
 
*******************************************************************************
Ephemeris / WWW_USER Fri Nov  9 15:38:41 2018 Pasadena, USA      / Horizons    
*******************************************************************************
Target body name: Jupiter (599)                   {source: jup341}
Center body name: Earth (399)                     {source: DE431mx}
Center-site name: GEOCENTRIC
*******************************************************************************
Start time      : A.D. 2017-Feb-02 00:00:00.0000 UT      
Stop  time      : A.D. 2017-Feb-04 00:00:00.0000 UT      
Step-size       : 5 minutes
*******************************************************************************
Target pole/equ : IAU_JUPITER                     {West-longitude positive}
Target radii    : 71492.0 x 71492.0 x 66854.0 km  {Equator, meridian, pole}    
Center geodetic : 0.00000000,0.00000000,0.0000000 {E-lon(deg),Lat(deg),Alt(km)}
Center cylindric: 0.00000000,0.00000000,0.0000000 {E-lon(deg),Dxy(km),Dz(km)}
Center pole/equ : High-precision EOP model        {East-longitude positive}
Center radii    : 6378.1 x 6378.1 x 6356.8 km     {Equator, meridian, pole}    
Target primary  : Sun
Vis. interferer : MOON (R_eq= 1737.400) km        {source: DE431mx}
Rel. light bend : Sun, EARTH                      {source: DE431mx}
Rel. lght bnd GM: 1.3271E+11, 3.9860E+05 km^3/s^2                              
Atmos refraction: NO (AIRLESS)
RA format       : DEG
Time format     : CAL 
EOP file        : eop.181108.p190130                                           
EOP coverage    : DATA-BASED 1962-JAN-20 TO 2018-NOV-08. PREDICTS-> 2019-JAN-29
Units conversion: 1 au= 149597870.700 km, c= 299792.458 km/s, 1 day= 86400.0 s 
Table cut-offs 1: Elevation (-90.0deg=NO ),Airmass (>38.000=NO), Daylight (NO )
Table cut-offs 2: Solar elongation (  0.0,180.0=NO ),Local Hour Angle( 0.0=NO )
Table cut-offs 3: RA/DEC angular rate (     0.0=NO )                           
**************************************************************************************************************************************
 Date__(UT)__HR:MN:SC.fff     R.A._(ICRF/J2K)_DEC Ang-diam Ob-lon Ob-lat Sl-lon Sl-lat   NP.ang   NP.dist            delta      deldot
**************************************************************************************************************************************
$$SOE
 2017-Feb-02 00:00:00.000     201.68649  -7.58329 39.13987 206.18  -3.40 215.95  -2.95  23.2276    -18.27 5.03695131991285 -26.3144380
 2017-Feb-02 00:05:00.000     201.68654  -7.58330 39.14028 209.21  -3.40 218.97  -2.95  23.2276    -18.27 5.03689855051394 -26.3138658
 2017-Feb-02 00:10:00.000     201.68659  -7.58330 39.14069 212.23  -3.40 221.99  -2.95  23.2276    -18.27 5.03684578226264 -26.3132935
 2017-Feb-02 00:15:00.000     201.68663  -7.58330 39.14110 215.25  -3.40 225.01  -2.95  23.2275    -18.27 5.03679301515914 -26.3127211
 2017-Feb-02 00:20:00.000     201.68668  -7.58331 39.14151 218.27  -3.40 228.04  -2.95  23.2275    -18.27 5.03674024920355 -26.3121486
 2017-Feb-02 00:25:00.000     201.68673  -7.58331 39.14192 221.30  -3.40 231.06  -2.95  23.2275    -18.27 5.03668748439606 -26.3115760
 2017-Feb-02 00:30:00.000     201.68678  -7.58331 39.14233 224.32  -3.40 234.08  -2.95  23.2275    -18.27 5.03663472073686 -26.3110034
 2017-Feb-02 00:35:00.000     201.68683  -7.58332 39.14274 227.34  -3.40 237.11  -2.95  23.2275    -18.27 5.03658195822606 -26.3104306
 2017-Feb-02 00:40:00.000     201.68688  -7.58332 39.14315 230.37  -3.40 240.13  -2.95  23.2275    -18.27 5.03652919686387 -26.3098578
 2017-Feb-02 00:45:00.000     201.68693  -7.58333 39.14356 233.39  -3.40 243.15  -2.95  23.2275    -18.27 5.03647643665046 -26.3092849
 2017-Feb-02 00:50:00.000     201.68698  -7.58333 39.14397 236.41  -3.40 246.17  -2.95  23.2275    -18.27 5.03642367758603 -26.3087119
 2017-Feb-02 00:55:00.000     201.68702  -7.58333 39.14438 239.43  -3.41 249.20  -2.95  23.2275    -18.27 5.03637091967072 -26.3081388
 2017-Feb-02 01:00:00.000     201.68707  -7.58334 39.14479 242.46  -3.41 252.22  -2.95  23.2275    -18.27 5.03631816290473 -26.3075657
 2017-Feb-02 01:05:00.000     201.68712  -7.58334 39.14520 245.48  -3.41 255.24  -2.95  23.2275    -18.27 5.03626540728826 -26.3069924
 2017-Feb-02 01:10:00.000     201.68717  -7.58334 39.14561 248.50  -3.41 258.26  -2.95  23.2274    -18.27 5.03621265282151 -26.3064190
 2017-Feb-02 01:15:00.000     201.68722  -7.58335 39.14602 251.53  -3.41 261.29  -2.95  23.2274    -18.27 5.03615989950464 -26.3058456
 2017-Feb-02 01:20:00.000     201.68727  -7.58335 39.14643 254.55  -3.41 264.31  -2.95  23.2274    -18.27 5.03610714733787 -26.3052720
 2017-Feb-02 01:25:00.000     201.68731  -7.58335 39.14684 257.57  -3.41 267.33  -2.95  23.2274    -18.27 5.03605439632141 -26.3046983
 2017-Feb-02 01:30:00.000     201.68736  -7.58336 39.14725 260.60  -3.41 270.36  -2.95  23.2274    -18.27 5.03600164645543 -26.3041246
 2017-Feb-02 01:35:00.000     201.68741  -7.58336 39.14766 263.62  -3.41 273.38  -2.95  23.2274    -18.27 5.03594889774016 -26.3035507
 2017-Feb-02 01:40:00.000     201.68746  -7.58336 39.14807 266.64  -3.41 276.40  -2.95  23.2274    -18.27 5.03589615017581 -26.3029767
 2017-Feb-02 01:45:00.000     201.68751  -7.58337 39.14848 269.66  -3.41 279.42  -2.95  23.2274    -18.27 5.03584340376260 -26.3024026
 2017-Feb-02 01:50:00.000     201.68756  -7.58337 39.14889 272.69  -3.41 282.45  -2.95  23.2274    -18.27 5.03579065850073 -26.3018284
 2017-Feb-02 01:55:00.000     201.68760  -7.58337 39.14930 275.71  -3.41 285.47  -2.95  23.2274    -18.27 5.03573791439042 -26.3012541
 2017-Feb-02 02:00:00.000     201.68765  -7.58338 39.14971 278.73  -3.41 288.49  -2.95  23.2274    -18.27 5.03568517143191 -26.3006797
 2017-Feb-02 02:05:00.000     201.68770  -7.58338 39.15012 281.76  -3.41 291.51  -2.95  23.2274    -18.27 5.03563242962542 -26.3001052
 2017-Feb-02 02:10:00.000     201.68775  -7.58338 39.15053 284.78  -3.41 294.54  -2.95  23.2273    -18.27 5.03557968897117 -26.2995305
 2017-Feb-02 02:15:00.000     201.68780  -7.58339 39.15094 287.80  -3.41 297.56  -2.95  23.2273    -18.27 5.03552694946939 -26.2989558
 2017-Feb-02 02:20:00.000     201.68784  -7.58339 39.15135 290.82  -3.41 300.58  -2.95  23.2273    -18.27 5.03547421112033 -26.2983809
 2017-Feb-02 02:25:00.000     201.68789  -7.58339 39.15176 293.85  -3.41 303.60  -2.95  23.2273    -18.27 5.03542147392425 -26.2978059
 2017-Feb-02 02:30:00.000     201.68794  -7.58340 39.15217 296.87  -3.41 306.63  -2.95  23.2273    -18.27 5.03536873788134 -26.2972308
 2017-Feb-02 02:35:00.000     201.68799  -7.58340 39.15258 299.89  -3.41 309.65  -2.95  23.2273    -18.27 5.03531600299187 -26.2966555
 2017-Feb-02 02:40:00.000     201.68804  -7.58340 39.15299 302.92  -3.41 312.67  -2.95  23.2273    -18.27 5.03526326925611 -26.2960801
 2017-Feb-02 02:45:00.000     201.68808  -7.58341 39.15340 305.94  -3.41 315.70  -2.95  23.2273    -18.27 5.03521053667428 -26.2955046
 2017-Feb-02 02:50:00.000     201.68813  -7.58341 39.15381 308.96  -3.41 318.72  -2.95  23.2273    -18.27 5.03515780524664 -26.2949290
 2017-Feb-02 02:55:00.000     201.68818  -7.58341 39.15422 311.98  -3.41 321.74  -2.95  23.2273    -18.27 5.03510507497346 -26.2943533
 2017-Feb-02 03:00:00.000     201.68823  -7.58342 39.15463 315.01  -3.41 324.76  -2.95  23.2273    -18.27 5.03505234585501 -26.2937774
 2017-Feb-02 03:05:00.000     201.68828  -7.58342 39.15504 318.03  -3.41 327.79  -2.95  23.2272    -18.28 5.03499961789153 -26.2932014
 2017-Feb-02 03:10:00.000     201.68832  -7.58342 39.15545 321.05  -3.41 330.81  -2.95  23.2272    -18.28 5.03494689108329 -26.2926252
 2017-Feb-02 03:15:00.000     201.68837  -7.58343 39.15586 324.08  -3.41 333.83  -2.95  23.2272    -18.28 5.03489416543058 -26.2920489
 2017-Feb-02 03:20:00.000     201.68842  -7.58343 39.15627 327.10  -3.41 336.85  -2.95  23.2272    -18.28 5.03484144093368 -26.2914725
 2017-Feb-02 03:25:00.000     201.68847  -7.58343 39.15668 330.12  -3.41 339.88  -2.95  23.2272    -18.28 5.03478871759283 -26.2908959
 2017-Feb-02 03:30:00.000     201.68851  -7.58344 39.15709 333.15  -3.41 342.90  -2.95  23.2272    -18.28 5.03473599540834 -26.2903192
 2017-Feb-02 03:35:00.000     201.68856  -7.58344 39.15750 336.17  -3.41 345.92  -2.95  23.2272    -18.28 5.03468327438047 -26.2897424
